{"fetched_at":"2026-03-29T16:36:15Z","count":15609,"tles":[{"name":"STARLINK-3184","line1":"1 51143U 22005AR  26087.69706526  .00000789  00000+0  67621-4 0  9996","line2":"2 51143  53.2165 223.7919 0001141  89.8470 270.2653 15.08841949231464","category":"Starlink"}]}